*******************************************************************************
JPL/HORIZONS                 3406 Omsk (1969 DA)           2023-Sep-04 11:23:25
Rec #:    3406 (+COV) Soln.date: 2023-Aug-23_10:03:10   # obs: 7095 (1969-2023)
 
IAU76/J2000 helio. ecliptic osc. elements (au, days, deg., period=Julian yrs):
 
  EPOCH=  2457753.5 ! 2016-Dec-31.00 (TDB)         Residual RMS= .24861
   EC= .1318040801668164   QR= 2.427030837091433   TP= 2457609.7585894279
   OM= 269.8514935170055   W=  310.0651261966728   IN= 8.358999587690526
   A= 2.795487494985885    MA= 30.31095679197636   ADIST= 3.163944152880338
   PER= 4.67406            N= .21087143            ANGMOM= .028510492
   DAN= 2.53211            DDN= 3.00157            L= 220.2183276
   B= -6.3878089           MOID= 1.42712998        TP= 2016-Aug-09.2585894279
 
Asteroid physical parameters (km, seconds, rotational period in hours):
   GM= n.a.                RAD= 8.029              ROTPER= 7.275
   H= 11.97                G= .150                 B-V= n.a.
                           ALBEDO= .224            STYP= X

ASTEROID comments: 
1: soln ref.= JPL#54, OCC=0
2: source=ORB
*******************************************************************************


*******************************************************************************
Ephemeris / API_USER Mon Sep  4 11:23:25 2023 Pasadena, USA      / Horizons
*******************************************************************************
Target body name: 3406 Omsk (1969 DA)             {source: JPL#54}
Center body name: Solar System Barycenter (0)     {source: DE441}
Center-site name: BODY CENTER
*******************************************************************************
Start time      : A.D. 2023-Aug-12 00:00:00.0000 TDB
Stop  time      : A.D. 2023-Aug-13 00:00:00.0000 TDB
Step-size       : 2880 minutes
*******************************************************************************
Center geodetic : 0.0, 0.0, 0.0                   {E-lon(deg),Lat(deg),Alt(km)}
Center cylindric: 0.0, 0.0, 0.0                   {E-lon(deg),Dxy(km),Dz(km)}
Center radii    : (undefined)
Small perturbers: Yes                             {source: SB441-N16}
Output units    : KM-S
Calendar mode   : Mixed Julian/Gregorian
Output type     : GEOMETRIC cartesian states
Output format   : 2 (position and velocity)
Reference frame : Ecliptic of J2000.0
*******************************************************************************
Initial IAU76/J2000 heliocentric ecliptic osculating elements (au, days, deg.):
  EPOCH=  2457753.5 ! 2016-Dec-31.00 (TDB)         Residual RMS= .24861        
   EC= .1318040801668164   QR= 2.427030837091433   TP= 2457609.7585894279      
   OM= 269.8514935170055   W=  310.0651261966728   IN= 8.358999587690526       
  Equivalent ICRF heliocentric cartesian coordinates (au, au/d):
   X=-4.676561870734001E-01  Y=-2.218102037751952E+00  Z=-1.035544722725769E+00
  VX= 1.095087167242469E-02 VY=-3.408706445391690E-03 VZ= 2.771888173020245E-04
Asteroid physical parameters (km, seconds, rotational period in hours):        
   GM= n.a.                RAD= 8.029              ROTPER= 7.275               
   H= 11.97                G= .150                 B-V= n.a.                   
                           ALBEDO= .224            STYP= X                     
*******************************************************************************
JDTDB
   X     Y     Z
   VX    VY    VZ
*******************************************************************************
$$SOE
2460168.500000000 = A.D. 2023-Aug-12 00:00:00.0000 TDB 
 X = 3.606270016200269E+08 Y = 3.011341498576635E+08 Z = 5.282395541254684E+07
 VX=-9.738678140230482E+00 VY= 1.207985737728865E+01 VZ=-1.450058200441972E+00
$$EOE
*******************************************************************************
 
TIME

  Barycentric Dynamical Time ("TDB" or T_eph) output was requested. This
continuous coordinate time is equivalent to the relativistic proper time
of a clock at rest in a reference frame co-moving with the solar system
barycenter but outside the system's gravity well. It is the independent
variable in the solar system relativistic equations of motion.

  TDB runs at a uniform rate of one SI second per second and is independent
of irregularities in Earth's rotation.
 
CALENDAR SYSTEM

  Mixed calendar mode was active such that calendar dates after AD 1582-Oct-15
(if any) are in the modern Gregorian system. Dates prior to 1582-Oct-5 (if any)
are in the Julian calendar system, which is automatically extended for dates
prior to its adoption on 45-Jan-1 BC.  The Julian calendar is useful for
matching historical dates. The Gregorian calendar more accurately corresponds
to the Earth's orbital motion and seasons. A "Gregorian-only" calendar mode is
available if such physical events are the primary interest.

REFERENCE FRAME AND COORDINATES

  Ecliptic at the standard reference epoch

    Reference epoch: J2000.0
    X-Y plane: adopted Earth orbital plane at the reference epoch
               Note: IAU76 obliquity of 84381.448 arcseconds wrt ICRF X-Y plane
    X-axis   : ICRF
    Z-axis   : perpendicular to the X-Y plane in the directional (+ or -) sense
               of Earth's north pole at the reference epoch.

  Symbol meaning:

    JDTDB    Julian Day Number, Barycentric Dynamical Time
      X      X-component of position vector (km)
      Y      Y-component of position vector (km)
      Z      Z-component of position vector (km)
      VX     X-component of velocity vector (km/sec)                           
      VY     Y-component of velocity vector (km/sec)                           
      VZ     Z-component of velocity vector (km/sec)                           

ABERRATIONS AND CORRECTIONS

 Geometric state vectors have NO corrections or aberrations applied.

Computations by ...

    Solar System Dynamics Group, Horizons On-Line Ephemeris System
    4800 Oak Grove Drive, Jet Propulsion Laboratory
    Pasadena, CA  91109   USA

    General site: https://ssd.jpl.nasa.gov/
    Mailing list: https://ssd.jpl.nasa.gov/email_list.html
    System news : https://ssd.jpl.nasa.gov/horizons/news.html
    User Guide  : https://ssd.jpl.nasa.gov/horizons/manual.html
    Connect     : browser        https://ssd.jpl.nasa.gov/horizons/app.html#/x
                  API            https://ssd-api.jpl.nasa.gov/doc/horizons.html
                  command-line   telnet ssd.jpl.nasa.gov 6775
                  e-mail/batch   https://ssd.jpl.nasa.gov/ftp/ssd/hrzn_batch.txt
                  scripts        https://ssd.jpl.nasa.gov/ftp/ssd/SCRIPTS
    Author      : Jon.D.Giorgini@jpl.nasa.gov
*******************************************************************************
